{"type": "FeatureCollection", "features": [ {"type": "Feature", "properties": {"norad_id": 44542, "name": "BEIDOU-3 M24 (C46)", "group": "gnss", "lat": -16.22404643930544, "lon": 176.6865657072435, "alt_km": 21511.82133026719, "timestamp": "2025-12-21T11:31:43.098237+00:00", "meta": {"OBJECT_NAME": "BEIDOU-3 M24 (C46)", "OBJECT_ID": "2019-061A", "EPOCH": "2025-12-20T10:28:25.457664", "MEAN_MOTION": 1.86229474, "ECCENTRICITY": 0.00096021, "INCLINATION": 54.4004, "RA_OF_ASC_NODE": 188.7562, "ARG_OF_PERICENTER": 25.7193, "MEAN_ANOMALY": 334.3849, "EPHEMERIS_TYPE": 0, "CLASSIFICATION_TYPE": "U", "NORAD_CAT_ID": 44542, "ELEMENT_SET_NO": 999, "REV_AT_EPOCH": 4246, "BSTAR": 0, "MEAN_MOTION_DOT": 9.8e-07, "MEAN_MOTION_DDOT": 0}, "tle": {"line1": "1 44542U 19061A   25354.43640576  .00000098  00000+0  00000+0 0  9995", "line2": "2 44542  54.4004 188.7562 0009602  25.7193 334.3849  1.86229474 42462"}}, "geometry": {"type": "Point", "coordinates": [176.6865657072435, -16.22404643930544]}}, {"type": "Feature", "properties": {"norad_id": 44543, "name": "BEIDOU-3 M23 (C45)", "group": "gnss", "lat": -50.87815849692452, "lon": 70.50850271187208, "alt_km": 21545.47287893402, "timestamp": "2025-12-21T11:31:43.098248+00:00", "meta": {"OBJECT_NAME": "BEIDOU-3 M23 (C45)", "OBJECT_ID": "2019-061B", "EPOCH": "2025-12-20T19:59:50.640000", "MEAN_MOTION": 1.86227682, "ECCENTRICITY": 0.00060744, "INCLINATION": 54.3995, "RA_OF_ASC_NODE": 188.7112, "ARG_OF_PERICENTER": 25.3362, "MEAN_ANOMALY": 153.5268, "EPHEMERIS_TYPE": 0, "CLASSIFICATION_TYPE": "U", "NORAD_CAT_ID": 44543, "ELEMENT_SET_NO": 999, "REV_AT_EPOCH": 4247, "BSTAR": 0, "MEAN_MOTION_DOT": 9.6e-07, "MEAN_MOTION_DDOT": 0}, "tle": {"line1": "1 44543U 19061B   25354.83322500  .00000096  00000+0  00000+0 0  9992", "line2": "2 44543  54.3995 188.7112 0006074  25.3362 153.5268  1.86227682 42472"}}, "geometry": {"type": "Point", "coordinates": [70.50850271187208, -50.87815849692452]}}, {"type": "Feature", "properties": {"norad_id": 44624, "name": "EUTELSAT 5 WEST B (EGNOS/PRN 121)", "group": "gnss", "lat": -0.09036133649428205, "lon": -101.7823683231538, "alt_km": 35773.721929918014, "timestamp": "2025-12-21T11:31:43.098260+00:00", "meta": {"OBJECT_NAME": "EUTELSAT 5 WEST B (EGNOS/PRN 121)", "OBJECT_ID": "2019-067A", "EPOCH": "2025-12-21T03:40:38.748864", "MEAN_MOTION": 1.00271336, "ECCENTRICITY": 0.000301, "INCLINATION": 0.0667, "RA_OF_ASC_NODE": 336.125, "ARG_OF_PERICENTER": 293.8202, "MEAN_ANOMALY": 230.1981, "EPHEMERIS_TYPE": 0, "CLASSIFICATION_TYPE": "U", "NORAD_CAT_ID": 44624, "ELEMENT_SET_NO": 999, "REV_AT_EPOCH": 2265, "BSTAR": 0, "MEAN_MOTION_DOT": -1.9e-07, "MEAN_MOTION_DDOT": 0}, "tle": {"line1": "1 44624U 19067A   25355.15322626 -.00000019  00000+0  00000+0 0  9999", "line2": "2 44624   0.0667 336.1250 0003010 293.8202 230.1981  1.00271336 22653"}}, "geometry": {"type": "Point", "coordinates": [-101.7823683231538, -0.09036133649428205]}}, {"type": "Feature", "properties": {"norad_id": 44793, "name": "BEIDOU-3 M22 (C44)", "group": "gnss", "lat": 54.02514524885852, "lon": 31.482690976120935, "alt_km": 21513.987426672677, "timestamp": "2025-12-21T11:31:43.098287+00:00", "meta": {"OBJECT_NAME": "BEIDOU-3 M22 (C44)", "OBJECT_ID": "2019-078A", "EPOCH": "2025-12-19T04:51:35.344224", "MEAN_MOTION": 1.86232161, "ECCENTRICITY": 0.0006038, "INCLINATION": 54.1023, "RA_OF_ASC_NODE": 306.1592, "ARG_OF_PERICENTER": 24.3104, "MEAN_ANOMALY": 335.7082, "EPHEMERIS_TYPE": 0, "CLASSIFICATION_TYPE": "U", "NORAD_CAT_ID": 44793, "ELEMENT_SET_NO": 999, "REV_AT_EPOCH": 4129, "BSTAR": 0, "MEAN_MOTION_DOT": -7.7e-07, "MEAN_MOTION_DDOT": 0}, "tle": {"line1": "1 44793U 19078A   25353.20249241 -.00000077  00000+0  00000+0 0  9997", "line2": "2 44793  54.1023 306.1592 0006038  24.3104 335.7082  1.86232161 41295"}}, "geometry": {"type": "Point", "coordinates": [31.482690976120935, 54.02514524885852]}}, {"type": "Feature", "properties": {"norad_id": 44794, "name": "BEIDOU-3 M21 (C43)", "group": "gnss", "lat": -4.243819548693651, "lon": -57.0598007587635, "alt_km": 21518.219225589168, "timestamp": "2025-12-21T11:31:43.098302+00:00", "meta": {"OBJECT_NAME": "BEIDOU-3 M21 (C43)", "OBJECT_ID": "2019-078B", "EPOCH": "2025-12-16T15:43:55.727904", "MEAN_MOTION": 1.86227668, "ECCENTRICITY": 0.00041169, "INCLINATION": 54.078, "RA_OF_ASC_NODE": 306.2132, "ARG_OF_PERICENTER": 11.942, "MEAN_ANOMALY": 348.0544, "EPHEMERIS_TYPE": 0, "CLASSIFICATION_TYPE": "U", "NORAD_CAT_ID": 44794, "ELEMENT_SET_NO": 999, "REV_AT_EPOCH": 4125, "BSTAR": 0, "MEAN_MOTION_DOT": -9.5e-07, "MEAN_MOTION_DDOT": 0}, "tle": {"line1": "1 44794U 19078B   25350.65550611 -.00000095  00000+0  00000+0 0  9990", "line2": "2 44794  54.0780 306.2132 0004116  11.9420 348.0544  1.86227668 41256"}}, "geometry": {"type": "Point", "coordinates": [-57.0598007587635, -4.243819548693651]}}, {"type": "Feature", "properties": {"norad_id": 44850, "name": "COSMOS 2544 (759)", "group": "gnss", "lat": -44.87657347036616, "lon": -73.3200349716145, "alt_km": 19101.129617786202, "timestamp": "2025-12-21T11:31:43.098320+00:00", "meta": {"OBJECT_NAME": "COSMOS 2544 (759)", "OBJECT_ID": "2019-088A", "EPOCH": "2025-12-21T04:18:06.689376", "MEAN_MOTION": 2.13102125, "ECCENTRICITY": 0.0014189, "INCLINATION": 65.4644, "RA_OF_ASC_NODE": 79.6762, "ARG_OF_PERICENTER": 250.1854, "MEAN_ANOMALY": 109.6984, "EPHEMERIS_TYPE": 0, "CLASSIFICATION_TYPE": "U", "NORAD_CAT_ID": 44850, "ELEMENT_SET_NO": 999, "REV_AT_EPOCH": 4692, "BSTAR": 0, "MEAN_MOTION_DOT": -1e-07, "MEAN_MOTION_DDOT": 0}, "tle": {"line1": "1 44850U 19088A   25355.17924409 -.00000010  00000+0  00000+0 0  9993", "line2": "2 44850  65.4644  79.6762 0014189 250.1854 109.6984  2.13102125 46922"}}, "geometry": {"type": "Point", "coordinates": [-73.3200349716145, -44.87657347036616]}}, {"type": "Feature", "properties": {"norad_id": 44864, "name": "BEIDOU-3 M19 (C41)", "group": "gnss", "lat": -8.655851796664152, "lon": -105.50935864188074, "alt_km": 21533.391186405377, "timestamp": "2025-12-21T11:31:43.098332+00:00", "meta": {"OBJECT_NAME": "BEIDOU-3 M19 (C41)", "OBJECT_ID": "2019-090A", "EPOCH": "2025-12-20T17:56:37.822272", "MEAN_MOTION": 1.86231652, "ECCENTRICITY": 0.00182855, "INCLINATION": 56.3995, "RA_OF_ASC_NODE": 68.6961, "ARG_OF_PERICENTER": 285.0297, "MEAN_ANOMALY": 134.3435, "EPHEMERIS_TYPE": 0, "CLASSIFICATION_TYPE": "U", "NORAD_CAT_ID": 44864, "ELEMENT_SET_NO": 999, "REV_AT_EPOCH": 4091, "BSTAR": 0, "MEAN_MOTION_DOT": -4e-07, "MEAN_MOTION_DDOT": 0}, "tle": {"line1": "1 44864U 19090A   25354.74765998 -.00000040  00000+0  00000+0 0  9992", "line2": "2 44864  56.3995  68.6961 0018285 285.0297 134.3435  1.86231652 40919"}}, "geometry": {"type": "Point", "coordinates": [-105.50935864188074, -8.655851796664152]}}, {"type": "Feature", "properties": {"norad_id": 44865, "name": "BEIDOU-3 M20 (C42)", "group": "gnss", "lat": -55.09699745737948, "lon": -3.34360241378921, "alt_km": 21492.684340242533, "timestamp": "2025-12-21T11:31:43.098343+00:00", "meta": {"OBJECT_NAME": "BEIDOU-3 M20 (C42)", "OBJECT_ID": "2019-090B", "EPOCH": "2025-12-21T01:49:05.066976", "MEAN_MOTION": 1.86231552, "ECCENTRICITY": 0.001548, "INCLINATION": 56.4014, "RA_OF_ASC_NODE": 68.7196, "ARG_OF_PERICENTER": 297.2086, "MEAN_ANOMALY": 71.7471, "EPHEMERIS_TYPE": 0, "CLASSIFICATION_TYPE": "U", "NORAD_CAT_ID": 44865, "ELEMENT_SET_NO": 999, "REV_AT_EPOCH": 4090, "BSTAR": 0, "MEAN_MOTION_DOT": -3.8e-07, "MEAN_MOTION_DDOT": 0}, "tle": {"line1": "1 44865U 19090B   25355.07575309 -.00000038  00000+0  00000+0 0  9992", "line2": "2 44865  56.4014  68.7196 0015480 297.2086  71.7471  1.86231552 40901"}}, "geometry": {"type": "Point", "coordinates": [-3.34360241378921, -55.09699745737948]}}, {"type": "Feature", "properties": {"norad_id": 45344, "name": "BEIDOU-3 G2 (C60)", "group": "gnss", "lat": -2.2007523964685043, "lon": -16.697178768961155, "alt_km": 35782.48259011272, "timestamp": "2025-12-21T11:31:43.098355+00:00", "meta": {"OBJECT_NAME": "BEIDOU-3 G2 (C60)", "OBJECT_ID": "2020-017A", "EPOCH": "2025-12-19T13:38:45.370752", "MEAN_MOTION": 1.00273166, "ECCENTRICITY": 0.0002079, "INCLINATION": 2.5096, "RA_OF_ASC_NODE": 44.0024, "ARG_OF_PERICENTER": 233.0917, "MEAN_ANOMALY": 96.0359, "EPHEMERIS_TYPE": 0, "CLASSIFICATION_TYPE": "U", "NORAD_CAT_ID": 45344, "ELEMENT_SET_NO": 999, "REV_AT_EPOCH": 2145, "BSTAR": 0, "MEAN_MOTION_DOT": -1.18e-06, "MEAN_MOTION_DDOT": 0}, "tle": {"line1": "1 45344U 20017A   25353.56858068 -.00000118  00000+0  00000+0 0  9993", "line2": "2 45344   2.5096  44.0024 0002079 233.0917  96.0359  1.00273166 21451"}}, "geometry": {"type": "Point", "coordinates": [-16.697178768961155, -2.2007523964685043]}}, {"type": "Feature", "properties": {"norad_id": 45358, "name": "COSMOS 2545 (760)", "group": "gnss", "lat": 62.94152871315831, "lon": 27.917207927897497, "alt_km": 19151.672012264782, "timestamp": "2025-12-21T11:31:43.098367+00:00", "meta": {"OBJECT_NAME": "COSMOS 2545 (760)", "OBJECT_ID": "2020-018A", "EPOCH": "2025-12-20T21:44:12.707232", "MEAN_MOTION": 2.13102664, "ECCENTRICITY": 0.0011427, "INCLINATION": 64.4648, "RA_OF_ASC_NODE": 318.6832, "ARG_OF_PERICENTER": 250.0027, "MEAN_ANOMALY": 109.8671, "EPHEMERIS_TYPE": 0, "CLASSIFICATION_TYPE": "U", "NORAD_CAT_ID": 45358, "ELEMENT_SET_NO": 999, "REV_AT_EPOCH": 4486, "BSTAR": 0, "MEAN_MOTION_DOT": -5e-07, "MEAN_MOTION_DDOT": 0}, "tle": {"line1": "1 45358U 20018A   25354.90570263 -.00000050  00000+0  00000+0 0  9991", "line2": "2 45358  64.4648 318.6832 0011427 250.0027 109.8671  2.13102664 44860"}}, "geometry": {"type": "Point", "coordinates": [27.917207927897497, 62.94152871315831]}}]}